NORAD_CAT_ID,OBJECT_NAME,OBJECT_TYPE,EPOCH,MEAN_MOTION,ECCENTRICITY,INCLINATION,RA_OF_ASC_NODE,ARG_OF_PERICENTER,MEAN_ANOMALY,BSTAR,MEAN_MOTION_DOT,MEAN_MOTION_DDOT,TLE_LINE0,TLE_LINE1,TLE_LINE2,SEMIMAJOR_AXIS,PERIOD,APOGEE,PERIGEE,DECAYED
52345.0,STARLINK-3852,PAYLOAD,2023-05-18 16:00:30,15.08835833,0.0001264,53.2167,125.1151,87.105,273.0087,2.1553e-05,5.5e-07,0.0,0 STARLINK-3852,1 52345U 22045Q   23138.66701901  .00000055  00000-0  21553-4 0  9999,2 52345  53.2167 125.1151 0001264  87.1050 273.0087 15.08835833 60877,6917.893,95.438,540.633,538.884,0.0
52345.0,STARLINK-3852,PAYLOAD,2023-05-19 15:51:17,15.08837826,0.000127,53.2169,120.6547,88.8898,271.224,5.4652e-05,5.82e-06,0.0,0 STARLINK-3852,1 52345U 22045Q   23139.66061907  .00000582  00000-0  54652-4 0  9996,2 52345  53.2169 120.6547 0001270  88.8898 271.2240 15.08837826 61026,6917.887,95.438,540.631,538.873,0.0
52345.0,STARLINK-3852,PAYLOAD,2023-05-20 07:45:08,15.08847167,0.0001296,53.2168,117.6807,88.5777,271.5363,0.00010732,1.421e-05,0.0,0 STARLINK-3852,1 52345U 22045Q   23140.32301220  .00001421  00000-0  10732-3 0  9999,2 52345  53.2168 117.6807 0001296  88.5777 271.5363 15.08847167 61120,6917.858,95.437,540.62,538.827,0.0
52345.0,STARLINK-3852,PAYLOAD,2023-05-20 15:42:04,15.08842209,0.0001317,53.2165,116.1929,85.3258,274.7885,7.3626e-05,8.84e-06,0.0,0 STARLINK-3852,1 52345U 22045Q   23140.65421568  .00000884  00000-0  73626-4 0  9997,2 52345  53.2165 116.1929 0001317  85.3258 274.7885 15.08842209 61170,6917.874,95.437,540.65,538.828,0.0
52345.0,STARLINK-3852,PAYLOAD,2023-05-21 07:35:55,15.08847941,0.0001286,53.2163,113.2177,87.9595,272.1544,0.00011727,1.579e-05,0.0,0 STARLINK-3852,1 52345U 22045Q   23141.31660925  .00001579  00000-0  11727-3 0  9998,2 52345  53.2163 113.2177 0001286  87.9595 272.1544 15.08847941 61271,6917.856,95.437,540.611,538.831,0.0
52345.0,STARLINK-3852,PAYLOAD,2023-05-21 15:32:51,15.08843831,0.0001197,53.2159,111.7304,109.3018,250.8104,-2.9314e-05,-7.54e-06,0.0,0 STARLINK-3852,1 52345U 22045Q   23141.64781370 -.00000754  00000-0 -29314-4 0  9990,2 52345  53.2159 111.7304 0001197 109.3018 250.8104 15.08843831 61326,6917.869,95.437,540.562,538.906,0.0
52345.0,STARLINK-3852,PAYLOAD,2023-05-22 04:15:56,15.08838281,0.0001552,53.216,109.3522,94.6022,265.5147,-3.7472e-06,-3.48e-06,0.0,0 STARLINK-3852,1 52345U 22045Q   23142.17774014 -.00000348  00000-0 -37472-5 0  9990,2 52345  53.2160 109.3522 0001552  94.6022 265.5147 15.08838281 61401,6917.886,95.438,540.824,538.677,0.0
52345.0,STARLINK-3852,PAYLOAD,2023-05-22 07:26:43,15.08837122,0.000155,53.218,108.7538,113.2909,246.8246,-0.00010065,-1.889e-05,0.0,0 STARLINK-3852,1 52345U 22045Q   23142.31022267 -.00001889  00000-0 -10065-3 0  9990,2 52345  53.2180 108.7538 0001550 113.2909 246.8246 15.08837122 61420,6917.889,95.438,540.826,538.682,0.0
52345.0,STARLINK-3852,PAYLOAD,2023-05-22 15:23:38,15.08839746,0.0001413,53.2174,107.2711,97.255,262.8603,-2.8862e-06,-3.34e-06,0.0,0 STARLINK-3852,1 52345U 22045Q   23142.64141933 -.00000334  00000-0 -28862-5 0  9998,2 52345  53.2174 107.2711 0001413  97.2550 262.8603 15.08839746 61475,6917.881,95.438,540.724,538.769,0.0
52345.0,STARLINK-3852,PAYLOAD,2023-05-23 02:31:20,15.08846449,0.0001416,53.2172,105.1888,97.8188,262.2965,5.8258e-05,6.4e-06,0.0,0 STARLINK-3852,1 52345U 22045Q   23143.10509295  .00000640  00000-0  58258-4 0  9998,2 52345  53.2172 105.1888 0001416  97.8188 262.2965 15.08846449 61542,6917.861,95.437,540.705,538.746,0.0
52345.0,STARLINK-3852,PAYLOAD,2023-05-23 07:17:29,15.0885766,0.0001297,53.2173,104.298,91.0721,269.042,-6.194e-05,-1.274e-05,0.0,0 STARLINK-3852,1 52345U 22045Q   23143.30380923 -.00001274  00000-0 -61940-4 0  9993,2 52345  53.2173 104.2980 0001297  91.0721 269.0420 15.08857660 61573,6917.826,95.436,540.589,538.794,0.0
52345.0,STARLINK-3852,PAYLOAD,2023-05-23 21:35:58,15.08829199,0.0001319,53.2165,101.6215,98.3093,261.8049,8.5127e-05,1.067e-05,0.0,0 STARLINK-3852,1 52345U 22045Q   23143.89998465  .00001067  00000-0  85127-4 0  9994,2 52345  53.2165 101.6215 0001319  98.3093 261.8049 15.08829199 61666,6917.913,95.438,540.691,538.866,0.0
52345.0,STARLINK-3852,PAYLOAD,2023-05-24 07:08:17,15.08832994,0.0001289,53.2166,99.8384,88.333,271.7809,6.0125e-05,6.69e-06,0.0,0 STARLINK-3852,1 52345U 22045Q   23144.29742714  .00000669  00000-0  60125-4 0  9991,2 52345  53.2166  99.8384 0001289  88.3330 271.7809 15.08832994 61729,6917.902,95.438,540.659,538.875,0.0
52345.0,STARLINK-3852,PAYLOAD,2023-05-25 19:42:10,15.08832295,0.0001253,53.2172,93.0007,87.4292,272.6843,0.00010293,1.35e-05,0.0,0 STARLINK-3852,1 52345U 22045Q   23145.82094940  .00001350  00000-0  10293-3 0  9990,2 52345  53.2172  93.0007 0001253  87.4292 272.6843 15.08832295 61959,6917.904,95.438,540.636,538.902,0.0
52345.0,STARLINK-3852,PAYLOAD,2023-05-26 02:03:42,15.0883508,0.0001265,53.2172,91.8114,87.5388,272.5749,9.6144e-05,1.242e-05,0.0,0 STARLINK-3852,1 52345U 22045Q   23146.08590874  .00001242  00000-0  96144-4 0  9996,2 52345  53.2172  91.8114 0001265  87.5388 272.5749 15.08835080 61997,6917.895,95.438,540.636,538.885,0.0
52345.0,STARLINK-3852,PAYLOAD,2023-05-26 05:14:28,15.08837691,0.0001272,53.2174,91.2167,87.112,273.0018,0.0001119,1.493e-05,0.0,0 STARLINK-3852,1 52345U 22045Q   23146.21838700  .00001493  00000-0  11190-3 0  9999,2 52345  53.2174  91.2167 0001272  87.1120 273.0018 15.08837691 62018,6917.887,95.438,540.632,538.872,0.0
52345.0,STARLINK-3852,PAYLOAD,2023-05-27 03:29:53,15.08803494,0.0001557,53.2178,87.0547,96.6483,263.4687,0.00048242,7.39e-05,0.0,0 STARLINK-3852,1 52345U 22045Q   23147.14575956  .00007390  00000-0  48242-3 0  9993,2 52345  53.2178  87.0547 0001557  96.6483 263.4687 15.08803494 62154,6917.992,95.44,540.934,538.78,0.0
52345.0,STARLINK-3852,PAYLOAD,2023-05-27 13:02:11,15.0883919,0.0001345,53.2181,85.2708,92.1106,268.004,7.2636e-05,8.68e-06,0.0,0 STARLINK-3852,1 52345U 22045Q   23147.54318966  .00000868  00000-0  72636-4 0  9991,2 52345  53.2181  85.2708 0001345  92.1106 268.0040 15.08839190 62218,6917.883,95.438,540.678,538.817,0.0
52345.0,STARLINK-3852,PAYLOAD,2023-05-28 04:56:02,15.08849824,0.0001365,53.2176,82.2947,94.0686,266.0463,0.0001488,2.082e-05,0.0,0 STARLINK-3852,1 52345U 22045Q   23148.20558101  .00002082  00000-0  14880-3 0  9998,2 52345  53.2176  82.2947 0001365  94.0686 266.0463 15.08849824 62313,6917.85,95.437,540.66,538.771,0.0
52345.0,STARLINK-3852,PAYLOAD,2023-05-29 01:36:03,15.08846309,0.0001331,53.2176,78.4281,96.3854,263.729,0.00012095,1.638e-05,0.0,0 STARLINK-3852,1 52345U 22045Q   23149.06670292  .00001638  00000-0  12095-3 0  9991,2 52345  53.2176  78.4281 0001331  96.3854 263.7290 15.08846309 62447,6917.861,95.437,540.647,538.805,0.0
52345.0,STARLINK-3852,PAYLOAD,2023-05-29 19:05:18,15.0883848,0.0001364,53.2176,75.1572,92.5548,267.56,-8.3721e-06,-4.21e-06,0.0,0 STARLINK-3852,1 52345U 22045Q   23149.79535172 -.00000421  00000-0 -83721-5 0  9995,2 52345  53.2176  75.1572 0001364  92.5548 267.5600 15.08838480 62558,6917.885,95.438,540.694,538.806,0.0
52345.0,STARLINK-3852,PAYLOAD,2023-05-30 04:37:38,15.0883046,0.0001294,53.2184,73.3722,92.7238,267.3902,-0.00013136,-2.377e-05,0.0,0 STARLINK-3852,1 52345U 22045Q   23150.19280129 -.00002377  00000-0 -13136-3 0  9993,2 52345  53.2184  73.3722 0001294  92.7238 267.3902 15.08830460 62614,6917.91,95.438,540.67,538.879,0.0
52345.0,STARLINK-3852,PAYLOAD,2023-05-30 18:56:05,15.08841875,0.0001278,53.2185,70.6967,82.736,277.3777,-5.9507e-05,-1.235e-05,0.0,0 STARLINK-3852,1 52345U 22045Q   23150.78895553 -.00001235  00000-0 -59507-4 0  9996,2 52345  53.2185  70.6967 0001278  82.7360 277.3777 15.08841875 62706,6917.875,95.437,540.624,538.856,0.0
52345.0,STARLINK-3852,PAYLOAD,2023-05-30 22:06:51,15.088377,0.0001237,53.217,70.1066,73.1135,286.9993,2.8611e-05,1.67e-06,0.0,0 STARLINK-3852,1 52345U 22045Q   23150.92143492  .00000167  00000-0  28611-4 0  9993,2 52345  53.2170  70.1066 0001237  73.1135 286.9993 15.08837700 62724,6917.887,95.438,540.608,538.897,0.0
52345.0,STARLINK-3852,PAYLOAD,2023-05-31 01:17:37,15.08847526,0.0001266,53.2178,69.5086,84.447,275.6667,4.6568e-05,4.53e-06,0.0,0 STARLINK-3852,1 52345U 22045Q   23151.05390817  .00000453  00000-0  46568-4 0  9992,2 52345  53.2178  69.5086 0001266  84.4470 275.6667 15.08847526 62747,6917.857,95.437,540.598,538.847,0.0
52345.0,STARLINK-3852,PAYLOAD,2023-05-31 04:28:23,15.08853729,0.0001334,53.2177,68.9138,82.2477,277.8667,1.2044e-05,-9.6e-07,0.0,0 STARLINK-3852,1 52345U 22045Q   23151.18638543 -.00000096  00000-0  12044-4 0  9993,2 52345  53.2177  68.9138 0001334  82.2477 277.8667 15.08853729 62764,6917.838,95.437,540.626,538.781,0.0
52345.0,STARLINK-3852,PAYLOAD,2023-05-31 21:57:38,15.08834876,0.0001258,53.218,65.6426,82.5452,277.5683,0.00020186,2.926e-05,0.0,0 STARLINK-3852,1 52345U 22045Q   23151.91503331  .00002926  00000-0  20186-3 0  9998,2 52345  53.2180  65.6426 0001258  82.5452 277.5683 15.08834876 62872,6917.896,95.438,540.631,538.891,0.0
52345.0,STARLINK-3852,PAYLOAD,2023-06-01 01:08:24,15.08841661,0.0001251,53.218,65.0475,83.2845,276.829,0.00026231,3.889e-05,0.0,0 STARLINK-3852,1 52345U 22045Q   23152.04750939  .00003889  00000-0  26231-3 0  9997,2 52345  53.2180  65.0475 0001251  83.2845 276.8290 15.08841661 62895,6917.875,95.437,540.606,538.875,0.0
52345.0,STARLINK-3852,PAYLOAD,2023-06-02 02:34:35,15.0884821,0.0001217,53.2182,60.2897,82.0401,278.0729,5.7894e-05,6.34e-06,0.0,0 STARLINK-3852,1 52345U 22045Q   23153.10734989  .00000634  00000-0  57894-4 0  9997,2 52345  53.2182  60.2897 0001217  82.0401 278.0729 15.08848210 63056,6917.855,95.437,540.562,538.878,0.0
52345.0,STARLINK-3852,PAYLOAD,2023-06-02 21:39:13,15.08836779,0.0001221,53.2179,56.7222,96.2572,263.8559,-9.1476e-05,-1.743e-05,0.0,0 STARLINK-3852,1 52345U 22045Q   23153.90224212 -.00001743  00000-0 -91476-4 0  9996,2 52345  53.2179  56.7222 0001221  96.2572 263.8559 15.08836779 63178,6917.89,95.438,540.6,538.911,0.0
